ORBCOMM FM37            
1 33064U 08031E   24356.56046317  .00003357  00000+0  48326-3 0  9993
2 33064  48.4390 107.3498 0006222 321.3397 106.9544 14.78484102887751
ORBCOMM FM40            
1 33065U 08031F   24356.52165428  .00004492  00000+0  60932-3 0  9993
2 33065  48.4415  94.3275 0007497 332.7749  94.7561 14.80374003887822
VESSELSAT 1             
1 37840U 11058C   24356.56562890  .00000460  00000+0  10638-3 0  9998
2 37840  19.9620  88.6190 0013777  33.1807 326.9459 14.11280940681182
ORBCOMM FM109           
1 40086U 14040A   24356.55241989  .00001874  00000+0  44503-3 0  9998
2 40086  47.0014 134.8856 0002584 245.9478 114.1136 14.57502625555143
ORBCOMM FM107           
1 40087U 14040B   24356.52117846  .00001476  00000+0  35739-3 0  9999
2 40087  47.0042 136.0675 0001982 212.4837 147.5926 14.57644022555254
ORBCOMM FM106           
1 40088U 14040C   24356.31616502  .00002493  00000+0  45630-3 0  9991
2 40088  47.0610 333.2155 0018059 320.5038  39.4536 14.68529167557327
ORBCOMM FM111           
1 40089U 14040D   24356.59447686  .00004120  00000+0  50515-3 0  9994
2 40089  47.0006 205.4411 0030210  64.5128 295.8888 14.84453039563822
ORBCOMM FM104           
1 40090U 14040E   24356.52381133  .00001275  00000+0  32403-3 0  9997
2 40090  47.0034 167.5650 0016252 115.6474 244.6092 14.56091567554721
